[{"OBJECT_NAME":"OUTPOST MISSION 1","OBJECT_ID":"2023-084BK","EPOCH":"2026-03-09T23:19:35.444064","MEAN_MOTION":15.70083334,"ECCENTRICITY":0.00047289,"INCLINATION":97.5968,"RA_OF_ASC_NODE":222.1792,"ARG_OF_PERICENTER":254.2575,"MEAN_ANOMALY":105.8165,"EPHEMERIS_TYPE":0,"CLASSIFICATION_TYPE":"U","NORAD_CAT_ID":56226,"ELEMENT_SET_NO":999,"REV_AT_EPOCH":15332,"BSTAR":0.000839791,"MEAN_MOTION_DOT":0.00102103,"MEAN_MOTION_DDOT":0},{"OBJECT_NAME":"STARLINK-11311 [DTC]","OBJECT_ID":"2024-175L","EPOCH":"2026-03-09T08:52:55.815744","MEAN_MOTION":15.69704103,"ECCENTRICITY":0.00012218,"INCLINATION":53.1577,"RA_OF_ASC_NODE":58.0285,"ARG_OF_PERICENTER":96.7202,"MEAN_ANOMALY":263.3955,"EPHEMERIS_TYPE":0,"CLASSIFICATION_TYPE":"U","NORAD_CAT_ID":61253,"ELEMENT_SET_NO":999,"REV_AT_EPOCH":8452,"BSTAR":2.8220893e-5,"MEAN_MOTION_DOT":2.83e-5,"MEAN_MOTION_DDOT":0}]
